PROXIMA I               
1 43694U 18088E   22027.79448289  .00003915  00000+0  15892-3 0  9990
2 43694  85.0295  46.5545 0015525 274.1705  85.7763 15.24147374178538
PROXIMA II              
1 43696U 18088G   22027.79341880  .00003965  00000+0  16098-3 0  9995
2 43696  85.0296  46.5688 0015576 274.0945  85.8518 15.24140147178529
FACSAT-1                
1 43721U 18096C   22028.20640691  .00008786  00000+0  29323-3 0  9993
2 43721  97.3650 108.6704 0015730 188.1649 227.9278 15.31172634176484
CENTAURI-2              
1 43722U 18096D   22027.76529831  .00009740  00000+0  30694-3 0  9990
2 43722  97.3697 109.6015 0014944 187.4964 172.6057 15.32998727176481
INNOSAT-2               
1 43738U 18096V   22028.19208895  .00017309  00000+0  46174-3 0  9999
2 43738  97.3770 115.4127 0018791 182.5713 232.4247 15.38020833176881
SIRION PATHFINDER-2     
1 43759U 18099B   22027.78398381  .00000674  00000+0  65406-4 0  9996
2 43759  97.6393  98.1633 0014424  18.3255 341.8483 14.95811150172013
CORVUS BC4              
1 43767U 18099K   22028.15045769  .00000723  00000+0  70813-4 0  9999
2 43767  97.6361  97.2251 0012223  24.3016 335.8779 14.95227504172004
MOVE-II                 
1 43780U 18099Y   22027.72164850  .00001653  00000+0  15012-3 0  9991
2 43780  97.6427  98.5192 0013586  28.8128 331.3842 14.96539095172000
SPACEBEE-7              
1 43816U 18099BL  22027.70943211  .00000916  00000+0  85246-4 0  9993
2 43816  97.6447  99.2032 0013355  12.5614 347.5937 14.96634819171594
SPACEBEE-5              
1 43817U 18099BM  22028.15581316  .00004446  00000+0  37494-3 0  9991
2 43817  97.6583 101.7171 0012657  12.4182 347.7350 14.98607063171743
SPACEBEE-6              
1 43818U 18099BN  22028.14002561  .00002732  00000+0  24071-3 0  9994
2 43818  97.6483 100.2539 0012885  12.3169 347.8365 14.97219613171838
SHIELDS 1               
1 43850U 18104B   22027.83175187  .00001638  00000+0  68772-4 0  9998
2 43850  85.0312 145.4436 0016493  67.0091 293.2889 15.22489916173104
STF-1                   
1 43852U 18104D   22027.79857083  .00005225  00000+0  21403-3 0  9992
2 43852  85.0343 146.0380 0015492  79.0290 281.2695 15.23920863173101
ZACUBE-2                
1 43907U 18111AH  22028.25475279  .00002477  00000+0  98671-4 0  9994
2 43907  97.2090 279.5637 0019451 213.2941 264.8023 15.25975657171908
LUME 1                  
1 43908U 18111AJ  22027.86309269  .00004741  00000+0  17712-3 0  9998
2 43908  97.2108 280.2149 0018502 210.4414 149.5754 15.27673043171913
AOBA VELOX-IV           
1 43940U 19003J   22027.66046604  .00009340  00000+0  32006-3 0  9997
2 43940  97.1511  68.3053 0019100 292.4680  67.4539 15.30228523168553
MOVE-IIB                
1 44398U 19038N   22027.90889649  .00005159  00000+0  27597-3 0  9997
2 44398  97.6111 356.5071 0021572 254.0559 105.8296 15.15313866141735
SONATE                  
1 44400U 19038Q   22028.19997770  .00001997  00000+0  11548-3 0  9993
2 44400  97.6202 356.3979 0022729 256.2787 103.5914 15.13264953141717
LUCKY-7                 
1 44406U 19038W   22027.80419952  .00002592  00000+0  14646-3 0  9991
2 44406  97.6207 356.3725 0021964 255.3505 104.5291 15.13834878141678
BEESAT 9                
1 44412U 19038AC  22027.82227445  .00003208  00000+0  17728-3 0  9993
2 44412  97.6182 356.5137 0019656 260.1545  99.7467 15.14481998141390
JAISAT-1                
1 44419U 19038F   22027.85240919  .00004010  00000+0  21782-3 0  9991
2 44419  97.6187 357.2696 0018648 257.3557 102.5590 15.14965023141757
DUCHIFAT-3              
1 44854U 19089C   22027.90034228  .00001492  00000+0  12387-3 0  9992
2 44854  36.9639 212.8760 0006389 163.5302 196.5654 15.00023020116811
EYESAT-NANO             
1 44877U 19092E   22027.78139176  .00004956  00000+0  23607-3 0  9990
2 44877  97.4599 213.4768 0013588 124.0342 236.2185 15.19508279116986
ORBITAL FACTORY 2 (OF-2)
1 45113U 19071C   22027.72112191  .00010013  00000+0  26581-3 0  9998
2 45113  51.6418  28.0790 0011470  28.5312 331.6298 15.38857221111660
M2 PATHFINDER           
1 45727U 20037E   22028.03253411  .00000689  00000+0  74074-4 0  9998
2 45727  97.7208 206.1734 0013468 138.3320 221.8925 14.91603835 85894
NETSAT-4                
1 46504U 20068U   22027.83215020  .00001747  00000+0  13575-3 0  9991
2 46504  97.7106 328.1084 0013177  84.5737 275.6991 15.02558561 72927
NETSAT-3                
1 46505U 20068V   22027.77744649  .00002280  00000+0  17604-3 0  9999
2 46505  97.7095 327.9940 0011655  88.8819 271.3741 15.02513025 72922
NETSAT-1                
1 46506U 20068W   22027.78939902  .00001090  00000+0  86738-4 0  9992
2 46506  97.7092 327.9603 0010520  91.5169 268.7269 15.02452160 72922
NETSAT-2                
1 46507U 20068X   22027.79639720  .00000545  00000+0  45663-4 0  9995
2 46507  97.7121 327.9674 0010168  95.9141 264.3243 15.02440236 72879
SPOC                    
1 46921U 98067RR  22027.93085611  .00034113  00000+0  37020-3 0  9994
2 46921  51.6391 290.9706 0002487 165.8259 194.2805 15.63172934 69857
BOBCAT-1                
1 46922U 98067RS  22027.77757565  .00070607  00000+0  53518-3 0  9999
2 46922  51.6394 283.9767 0003489 170.1529 189.9538 15.71705287 69892
NEUTRON-1               
1 46923U 98067RT  22027.90050555  .00032923  00000+0  35898-3 0  9990
2 46923  51.6394 291.5225 0002263 170.3047 189.7991 15.63070063 69870
DESCENT                 
1 46927U 98067RX  22027.89833491  .00034223  00000+0  37029-3 0  9993
2 46927  51.6398 291.5050 0001986 185.9640 174.1331 15.63248158 69784
SAI-1 NANOCONNECT-2     
1 47701U 21015C   22027.74623537 -.00000072  00000+0  00000+0 0  9996
2 47701  97.4392 105.6353 0011814 217.3418 142.7637 15.24173244 50760
WARP-01                 
1 47924U 98067SA  22028.10874888  .00054523  00000+0  56084-3 0  9998
2 47924  51.6376 296.6206 0004282 192.1195 167.9697 15.64317148 49784
RSP-01                  
1 47925U 98067SB  22027.89321897  .00038471  00000+0  45214-3 0  9998
2 47925  51.6409 299.7162 0003248 142.9529 217.1690 15.61051629 49701
TAUSAT-1                
1 47926U 98067SC  22028.28260275  .00057167  00000+0  57825-3 0  9999
2 47926  51.6397 294.7940 0004308 147.9704 212.1554 15.64721799 49793
TSURU                   
1 47927U 98067SD  22028.03747703  .00033514  00000+0  41349-3 0  9993
2 47927  51.6398 299.9259 0003145 140.4622 219.6601 15.59846817 49710
STARS-EC                
1 47928U 98067SE  22027.88851384  .00062457  00000+0  61069-3 0  9996
2 47928  51.6388 297.4128 0004657 194.7732 165.3128 15.65536791 49716
MAYA-2                  
1 47929U 98067SF  22028.03318546  .00032647  00000+0  40325-3 0  9993
2 47929  51.6400 299.8956 0003216 138.3197 221.8042 15.59830552 49679
HIROGARI (OPUSAT-II)    
1 47930U 98067SG  22028.10330838  .00068816  00000+0  64498-3 0  9995
2 47930  51.6382 295.1071 0004116 147.4008 212.7242 15.66555881 49789
GUARANISAT-1            
1 47931U 98067SH  22027.89979729  .00032774  00000+0  40371-3 0  9997
2 47931  51.6409 300.5134 0003276 138.0157 222.1088 15.59900710 49698
SMOG-1                  
1 47964U 21022AJ  22027.65933538  .00003167  00000+0  20893-3 0  9993
2 47964  97.5439 290.8096 0017590 258.6626 101.2626 15.08066272 45655
MMSATS-1                
1 47976U 98067SJ  22027.97067017  .00011138  00000+0  18252-3 0  9997
2 47976  51.6467 306.9337 0002453 176.8691 183.2315 15.52992842 48391
BCCSAT-1                
1 48041U 21022AK  22027.70917619  .00002347  00000+0  15878-3 0  9994
2 48041  97.5444 290.6267 0013921 255.5315 104.4369 15.07422467 45628
RAMSAT                  
1 48850U 98067SL  22028.14546916  .00021355  00000+0  31308-3 0  9998
2 48850  51.6413 305.1150 0002910 234.5150 125.5570 15.55484681 35408
SOAR                    
1 48851U 98067SM  22028.09668962  .00131786  00000+0  93581-3 0  9990
2 48851  51.6338 295.7202 0005355 183.2309 176.8656 15.72967981 35568
BD-28                   
1 48867U 98067SN  22028.03597181  .00024195  00000+0  34455-3 0  9995
2 48867  51.6404 305.1297 0001242 272.5321  87.5528 15.56197891 34142
MIR-SAT 1               
1 48868U 98067SP  22027.99530103  .00063508  00000+0  67804-3 0  9996
2 48868  51.6386 301.8544 0002723 180.9930 179.1059 15.63312263 34218
1998-067SR              
1 49272U 98067SR  22027.93690305  .00022623  00000+0  35077-3 0  9991
2 49272  51.6414 308.9560 0005876 145.6368 214.5003 15.53897090 17726
1998-067SS              
1 49273U 98067SS  22028.03746923  .00028692  00000+0  42767-3 0  9998
2 49273  51.6412 308.1284 0005920 144.1106 216.0284 15.54838366 17746
1998-067ST              
1 49274U 98067ST  22027.84857734  .00029123  00000+0  43537-3 0  9996
2 49274  51.6411 309.1169 0005874 142.4098 217.7304 15.54750192 17716
CUAVA-1                 
1 49275U 98067SU  22028.06270199  .00028814  00000+0  43343-3 0  9997
2 49275  51.6428 308.0322 0005351 148.1710 334.7607 15.54588237 17690
